
    {
        "ARG_OF_PERICENTER": 349.0739,
        "BSTAR": 0.00060621754,
        "CLASSIFICATION_TYPE": "U",
        "ECCENTRICITY": 0.00077409,
        "ELEMENT_SET_NO": 999,
        "EPHEMERIS_TYPE": 0,
        "EPOCH": "2026-06-19T11:46:17.971392",
        "INCLINATION": 44.9701,
        "MEAN_ANOMALY": 10.9982,
        "MEAN_MOTION": 15.48397693,
        "MEAN_MOTION_DDOT": 0,
        "MEAN_MOTION_DOT": 0.00032668,
        "NORAD_CAT_ID": 62394,
        "OBJECT_ID": "2024-247T",
        "OBJECT_NAME": "CROCUBE",
        "RA_OF_ASC_NODE": 246.5654,
        "REV_AT_EPOCH": 8370
    },
    {
        "ARG_OF_PERICENTER": 98.6161,
        "BSTAR": 0.00019871349,
        "CLASSIFICATION_TYPE": "U",
        "ECCENTRICITY": 0.00039613,
        "ELEMENT_SET_NO": 999,
        "EPHEMERIS_TYPE": 0,
        "EPOCH": "2026-06-19T10:25:32.106432",
        "INCLINATION": 97.4197,
        "MEAN_ANOMALY": 261.5522,
        "MEAN_MOTION": 15.18719306,
        "MEAN_MOTION_DDOT": 0,
        "MEAN_MOTION_DOT": 4.058e-05,
        "NORAD_CAT_ID": 66778,
        "OBJECT_ID": "2025-276DS",
        "OBJECT_NAME": "FORESAIL-1 PRIME",
        "RA_OF_ASC_NODE": 243.6644,
        "REV_AT_EPOCH": 3074
    },
    {
        "ARG_OF_PERICENTER": 225.7617,
        "BSTAR": 0.00049084338,
        "CLASSIFICATION_TYPE": "U",
        "ECCENTRICITY": 0.00089348,
        "ELEMENT_SET_NO": 999,
        "EPHEMERIS_TYPE": 0,
        "EPOCH": "2026-06-19T14:13:09.931584",
        "INCLINATION": 51.6307,
        "MEAN_ANOMALY": 134.2643,
        "MEAN_MOTION": 15.60167582,
        "MEAN_MOTION_DDOT": 0,
        "MEAN_MOTION_DOT": 0.00040473,
        "NORAD_CAT_ID": 67683,
        "OBJECT_ID": "1998-067XZ",
        "OBJECT_NAME": "KNACKSAT-2",
        "RA_OF_ASC_NODE": 282.3774,
        "REV_AT_EPOCH": 2065
    }